ORBCOMM FM20            
1 25416U 98046D   25041.72918289  .00001937  00000+0  69841-3 0  9993
2 25416  44.9950  59.9581 0002507 294.4742  65.5844 14.36735324386078
ORBCOMM FM16            
1 25417U 98046E   25041.93760122  .00002642  00000+0  90740-3 0  9994
2 25417  44.9938  52.1243 0004837 349.6612  10.4136 14.38241185386074
ORBCOMM FM14            
1 25419U 98046G   25041.37563246  .00002749  00000+0  94256-3 0  9996
2 25419  44.9959  58.1489 0003871 329.5043  30.5579 14.38224539385953
ORBCOMM FM13            
1 25420U 98046H   25041.73242458  .00002401  00000+0  84738-3 0  9996
2 25420  44.9974  63.2606 0005706 336.7956  23.2633 14.37124689385046
ORBCOMM FM21            
1 25475U 98053A   25041.78215868  .00001933  00000+0  69512-3 0  9996
2 25475  45.0073 147.9163 0002390 253.0621 106.9965 14.36876892379063
ORBCOMM FM22            
1 25476U 98053B   25041.69675759  .00002573  00000+0  89324-3 0  9990
2 25476  45.0066 144.1317 0003989 274.1940  85.8452 14.37762932379065
ORBCOMM FM23            
1 25477U 98053C   25041.72739685  .00002120  00000+0  75573-3 0  9993
2 25477  45.0073 150.4541 0003173 264.9943  95.0543 14.37002360379200
