<?xml version="1.0" encoding="UTF-8"?>
<ndm xmlns:xsi="http://www.w3.org/2001/XMLSchema-instance" xsi:noNamespaceSchemaLocation="https://sanaregistry.org/r/ndmxml_unqualified/ndmxml-2.0.0-master-2.0.xsd">
<omm id="CCSDS_OMM_VERS" version="2.0">
<header><CREATION_DATE/><ORIGINATOR/></header><body><segment><metadata><OBJECT_NAME>ORBCOMM FM20</OBJECT_NAME><OBJECT_ID>1998-046D</OBJECT_ID><CENTER_NAME>EARTH</CENTER_NAME><REF_FRAME>TEME</REF_FRAME><TIME_SYSTEM>UTC</TIME_SYSTEM><MEAN_ELEMENT_THEORY>SGP4</MEAN_ELEMENT_THEORY></metadata><data><meanElements><EPOCH>2025-02-10T17:30:01.401696</EPOCH><MEAN_MOTION>14.36735324</MEAN_MOTION><ECCENTRICITY>.0002507</ECCENTRICITY><INCLINATION>44.9950</INCLINATION><RA_OF_ASC_NODE>59.9581</RA_OF_ASC_NODE><ARG_OF_PERICENTER>294.4742</ARG_OF_PERICENTER><MEAN_ANOMALY>65.5844</MEAN_ANOMALY></meanElements><tleParameters><EPHEMERIS_TYPE>0</EPHEMERIS_TYPE><CLASSIFICATION_TYPE>U</CLASSIFICATION_TYPE><NORAD_CAT_ID>25416</NORAD_CAT_ID><ELEMENT_SET_NO>999</ELEMENT_SET_NO><REV_AT_EPOCH>38607</REV_AT_EPOCH><BSTAR>.69841E-3</BSTAR><MEAN_MOTION_DOT>.1937E-4</MEAN_MOTION_DOT><MEAN_MOTION_DDOT>0</MEAN_MOTION_DDOT></tleParameters></data></segment></body></omm>
<omm id="CCSDS_OMM_VERS" version="2.0">
<header><CREATION_DATE/><ORIGINATOR/></header><body><segment><metadata><OBJECT_NAME>ORBCOMM FM16</OBJECT_NAME><OBJECT_ID>1998-046E</OBJECT_ID><CENTER_NAME>EARTH</CENTER_NAME><REF_FRAME>TEME</REF_FRAME><TIME_SYSTEM>UTC</TIME_SYSTEM><MEAN_ELEMENT_THEORY>SGP4</MEAN_ELEMENT_THEORY></metadata><data><meanElements><EPOCH>2025-02-10T22:30:08.745408</EPOCH><MEAN_MOTION>14.38241185</MEAN_MOTION><ECCENTRICITY>.0004837</ECCENTRICITY><INCLINATION>44.9938</INCLINATION><RA_OF_ASC_NODE>52.1243</RA_OF_ASC_NODE><ARG_OF_PERICENTER>349.6612</ARG_OF_PERICENTER><MEAN_ANOMALY>10.4136</MEAN_ANOMALY></meanElements><tleParameters><EPHEMERIS_TYPE>0</EPHEMERIS_TYPE><CLASSIFICATION_TYPE>U</CLASSIFICATION_TYPE><NORAD_CAT_ID>25417</NORAD_CAT_ID><ELEMENT_SET_NO>999</ELEMENT_SET_NO><REV_AT_EPOCH>38607</REV_AT_EPOCH><BSTAR>.9074E-3</BSTAR><MEAN_MOTION_DOT>.2642E-4</MEAN_MOTION_DOT><MEAN_MOTION_DDOT>0</MEAN_MOTION_DDOT></tleParameters></data></segment></body></omm>
<omm id="CCSDS_OMM_VERS" version="2.0">
<header><CREATION_DATE/><ORIGINATOR/></header><body><segment><metadata><OBJECT_NAME>ORBCOMM FM14</OBJECT_NAME><OBJECT_ID>1998-046G</OBJECT_ID><CENTER_NAME>EARTH</CENTER_NAME><REF_FRAME>TEME</REF_FRAME><TIME_SYSTEM>UTC</TIME_SYSTEM><MEAN_ELEMENT_THEORY>SGP4</MEAN_ELEMENT_THEORY></metadata><data><meanElements><EPOCH>2025-02-10T09:00:54.644544</EPOCH><MEAN_MOTION>14.38224539</MEAN_MOTION><ECCENTRICITY>.0003871</ECCENTRICITY><INCLINATION>44.9959</INCLINATION><RA_OF_ASC_NODE>58.1489</RA_OF_ASC_NODE><ARG_OF_PERICENTER>329.5043</ARG_OF_PERICENTER><MEAN_ANOMALY>30.5579</MEAN_ANOMALY></meanElements><tleParameters><EPHEMERIS_TYPE>0</EPHEMERIS_TYPE><CLASSIFICATION_TYPE>U</CLASSIFICATION_TYPE><NORAD_CAT_ID>25419</NORAD_CAT_ID><ELEMENT_SET_NO>999</ELEMENT_SET_NO><REV_AT_EPOCH>38595</REV_AT_EPOCH><BSTAR>.94256E-3</BSTAR><MEAN_MOTION_DOT>.2749E-4</MEAN_MOTION_DOT><MEAN_MOTION_DDOT>0</MEAN_MOTION_DDOT></tleParameters></data></segment></body></omm>
<omm id="CCSDS_OMM_VERS" version="2.0">
<header><CREATION_DATE/><ORIGINATOR/></header><body><segment><metadata><OBJECT_NAME>ORBCOMM FM13</OBJECT_NAME><OBJECT_ID>1998-046H</OBJECT_ID><CENTER_NAME>EARTH</CENTER_NAME><REF_FRAME>TEME</REF_FRAME><TIME_SYSTEM>UTC</TIME_SYSTEM><MEAN_ELEMENT_THEORY>SGP4</MEAN_ELEMENT_THEORY></metadata><data><meanElements><EPOCH>2025-02-10T17:34:41.483712</EPOCH><MEAN_MOTION>14.37124689</MEAN_MOTION><ECCENTRICITY>.0005706</ECCENTRICITY><INCLINATION>44.9974</INCLINATION><RA_OF_ASC_NODE>63.2606</RA_OF_ASC_NODE><ARG_OF_PERICENTER>336.7956</ARG_OF_PERICENTER><MEAN_ANOMALY>23.2633</MEAN_ANOMALY></meanElements><tleParameters><EPHEMERIS_TYPE>0</EPHEMERIS_TYPE><CLASSIFICATION_TYPE>U</CLASSIFICATION_TYPE><NORAD_CAT_ID>25420</NORAD_CAT_ID><ELEMENT_SET_NO>999</ELEMENT_SET_NO><REV_AT_EPOCH>38504</REV_AT_EPOCH><BSTAR>.84738E-3</BSTAR><MEAN_MOTION_DOT>.2401E-4</MEAN_MOTION_DOT><MEAN_MOTION_DDOT>0</MEAN_MOTION_DDOT></tleParameters></data></segment></body></omm>
<omm id="CCSDS_OMM_VERS" version="2.0">
<header><CREATION_DATE/><ORIGINATOR/></header><body><segment><metadata><OBJECT_NAME>ORBCOMM FM21</OBJECT_NAME><OBJECT_ID>1998-053A</OBJECT_ID><CENTER_NAME>EARTH</CENTER_NAME><REF_FRAME>TEME</REF_FRAME><TIME_SYSTEM>UTC</TIME_SYSTEM><MEAN_ELEMENT_THEORY>SGP4</MEAN_ELEMENT_THEORY></metadata><data><meanElements><EPOCH>2025-02-10T18:46:18.509952</EPOCH><MEAN_MOTION>14.36876892</MEAN_MOTION><ECCENTRICITY>.000239</ECCENTRICITY><INCLINATION>45.0073</INCLINATION><RA_OF_ASC_NODE>147.9163</RA_OF_ASC_NODE><ARG_OF_PERICENTER>253.0621</ARG_OF_PERICENTER><MEAN_ANOMALY>106.9965</MEAN_ANOMALY></meanElements><tleParameters><EPHEMERIS_TYPE>0</EPHEMERIS_TYPE><CLASSIFICATION_TYPE>U</CLASSIFICATION_TYPE><NORAD_CAT_ID>25475</NORAD_CAT_ID><ELEMENT_SET_NO>999</ELEMENT_SET_NO><REV_AT_EPOCH>37906</REV_AT_EPOCH><BSTAR>.69512E-3</BSTAR><MEAN_MOTION_DOT>.1933E-4</MEAN_MOTION_DOT><MEAN_MOTION_DDOT>0</MEAN_MOTION_DDOT></tleParameters></data></segment></body></omm>
<omm id="CCSDS_OMM_VERS" version="2.0">
<header><CREATION_DATE/><ORIGINATOR/></header><body><segment><metadata><OBJECT_NAME>ORBCOMM FM22</OBJECT_NAME><OBJECT_ID>1998-053B</OBJECT_ID><CENTER_NAME>EARTH</CENTER_NAME><REF_FRAME>TEME</REF_FRAME><TIME_SYSTEM>UTC</TIME_SYSTEM><MEAN_ELEMENT_THEORY>SGP4</MEAN_ELEMENT_THEORY></metadata><data><meanElements><EPOCH>2025-02-10T16:43:19.855776</EPOCH><MEAN_MOTION>14.37762932</MEAN_MOTION><ECCENTRICITY>.0003989</ECCENTRICITY><INCLINATION>45.0066</INCLINATION><RA_OF_ASC_NODE>144.1317</RA_OF_ASC_NODE><ARG_OF_PERICENTER>274.1940</ARG_OF_PERICENTER><MEAN_ANOMALY>85.8452</MEAN_ANOMALY></meanElements><tleParameters><EPHEMERIS_TYPE>0</EPHEMERIS_TYPE><CLASSIFICATION_TYPE>U</CLASSIFICATION_TYPE><NORAD_CAT_ID>25476</NORAD_CAT_ID><ELEMENT_SET_NO>999</ELEMENT_SET_NO><REV_AT_EPOCH>37906</REV_AT_EPOCH><BSTAR>.89324E-3</BSTAR><MEAN_MOTION_DOT>.2573E-4</MEAN_MOTION_DOT><MEAN_MOTION_DDOT>0</MEAN_MOTION_DDOT></tleParameters></data></segment></body></omm>
<omm id="CCSDS_OMM_VERS" version="2.0">
<header><CREATION_DATE/><ORIGINATOR/></header><body><segment><metadata><OBJECT_NAME>ORBCOMM FM23</OBJECT_NAME><OBJECT_ID>1998-053C</OBJECT_ID><CENTER_NAME>EARTH</CENTER_NAME><REF_FRAME>TEME</REF_FRAME><TIME_SYSTEM>UTC</TIME_SYSTEM><MEAN_ELEMENT_THEORY>SGP4</MEAN_ELEMENT_THEORY></metadata><data><meanElements><EPOCH>2025-02-10T17:27:27.087840</EPOCH><MEAN_MOTION>14.37002360</MEAN_MOTION><ECCENTRICITY>.0003173</ECCENTRICITY><INCLINATION>45.0073</INCLINATION><RA_OF_ASC_NODE>150.4541</RA_OF_ASC_NODE><ARG_OF_PERICENTER>264.9943</ARG_OF_PERICENTER><MEAN_ANOMALY>95.0543</MEAN_ANOMALY></meanElements><tleParameters><EPHEMERIS_TYPE>0</EPHEMERIS_TYPE><CLASSIFICATION_TYPE>U</CLASSIFICATION_TYPE><NORAD_CAT_ID>25477</NORAD_CAT_ID><ELEMENT_SET_NO>999</ELEMENT_SET_NO><REV_AT_EPOCH>37920</REV_AT_EPOCH><BSTAR>.75573E-3</BSTAR><MEAN_MOTION_DOT>.212E-4</MEAN_MOTION_DOT><MEAN_MOTION_DDOT>0</MEAN_MOTION_DDOT></tleParameters></data></segment></body></omm>

</ndm>
